CCSDS_OMM_VERS = 2.0
CREATION_DATE  = 
ORIGINATOR     = 

OBJECT_NAME    = SL-16 R/B
OBJECT_ID      = 1993-016B
CENTER_NAME    = EARTH
REF_FRAME      = TEME
TIME_SYSTEM    = UTC
MEAN_ELEMENT_THEORY = SGP/SGP4

EPOCH          = 2026-02-12T01:16:52.342176
MEAN_MOTION    = 14.15302762
ECCENTRICITY   = .00104752
INCLINATION    = 71.0058
RA_OF_ASC_NODE = 269.0285
ARG_OF_PERICENTER = 348.8747
MEAN_ANOMALY   = 11.2142

EPHEMERIS_TYPE = 0
CLASSIFICATION_TYPE = U
NORAD_CAT_ID   = 22566
ELEMENT_SET_NO = 999
REV_AT_EPOCH   = 69854
BSTAR          = -.91747901E-4
MEAN_MOTION_DOT = -.226E-5
MEAN_MOTION_DDOT = 0

CCSDS_OMM_VERS = 2.0
CREATION_DATE  = 
ORIGINATOR     = 

OBJECT_NAME    = COSMOS 2242
OBJECT_ID      = 1993-024A
CENTER_NAME    = EARTH
REF_FRAME      = TEME
TIME_SYSTEM    = UTC
MEAN_ELEMENT_THEORY = SGP/SGP4

EPOCH          = 2026-02-12T03:51:09.861984
MEAN_MOTION    = 14.96443864
ECCENTRICITY   = .00174255
INCLINATION    = 82.5191
RA_OF_ASC_NODE = 291.1349
ARG_OF_PERICENTER = 35.5357
MEAN_ANOMALY   = 324.7022

EPHEMERIS_TYPE = 0
CLASSIFICATION_TYPE = U
NORAD_CAT_ID   = 22626
ELEMENT_SET_NO = 999
REV_AT_EPOCH   = 77657
BSTAR          = .22461348E-3
MEAN_MOTION_DOT = .258E-4
MEAN_MOTION_DDOT = 0

CCSDS_OMM_VERS = 2.0
CREATION_DATE  = 
ORIGINATOR     = 

OBJECT_NAME    = SL-16 R/B
OBJECT_ID      = 1993-059B
CENTER_NAME    = EARTH
REF_FRAME      = TEME
TIME_SYSTEM    = UTC
MEAN_ELEMENT_THEORY = SGP/SGP4

EPOCH          = 2026-02-12T05:00:39.487104
MEAN_MOTION    = 14.17228262
ECCENTRICITY   = .00194759
INCLINATION    = 70.9890
RA_OF_ASC_NODE = 64.8619
ARG_OF_PERICENTER = 251.7317
MEAN_ANOMALY   = 108.1688

EPHEMERIS_TYPE = 0
CLASSIFICATION_TYPE = U
NORAD_CAT_ID   = 22803
ELEMENT_SET_NO = 999
REV_AT_EPOCH   = 67592
BSTAR          = -.6166278E-5
MEAN_MOTION_DOT = -.61E-6
MEAN_MOTION_DDOT = 0

CCSDS_OMM_VERS = 2.0
CREATION_DATE  = 
ORIGINATOR     = 

OBJECT_NAME    = ARIANE 40 R/B
OBJECT_ID      = 1993-061H
CENTER_NAME    = EARTH
REF_FRAME      = TEME
TIME_SYSTEM    = UTC
MEAN_ELEMENT_THEORY = SGP/SGP4

EPOCH          = 2026-02-12T05:02:52.531008
MEAN_MOTION    = 14.32847386
ECCENTRICITY   = .00105737
INCLINATION    = 98.4972
RA_OF_ASC_NODE = 112.5938
ARG_OF_PERICENTER = 6.1102
MEAN_ANOMALY   = 354.0209

EPHEMERIS_TYPE = 0
CLASSIFICATION_TYPE = U
NORAD_CAT_ID   = 22830
ELEMENT_SET_NO = 999
REV_AT_EPOCH   = 69045
BSTAR          = .9506697E-4
MEAN_MOTION_DOT = .216E-5
MEAN_MOTION_DDOT = 0

CCSDS_OMM_VERS = 2.0
CREATION_DATE  = 
ORIGINATOR     = 

OBJECT_NAME    = COSMOS 2278
OBJECT_ID      = 1994-023A
CENTER_NAME    = EARTH
REF_FRAME      = TEME
TIME_SYSTEM    = UTC
MEAN_ELEMENT_THEORY = SGP/SGP4

EPOCH          = 2026-02-11T22:11:50.275680
MEAN_MOTION    = 14.14363439
ECCENTRICITY   = .0006742
INCLINATION    = 71.0500
RA_OF_ASC_NODE = 229.0010
ARG_OF_PERICENTER = 62.8021
MEAN_ANOMALY   = 297.3788

EPHEMERIS_TYPE = 0
CLASSIFICATION_TYPE = U
NORAD_CAT_ID   = 23087
ELEMENT_SET_NO = 999
REV_AT_EPOCH   = 64116
BSTAR          = .14357E-4
MEAN_MOTION_DOT = -.2E-6
MEAN_MOTION_DDOT = 0

CCSDS_OMM_VERS = 2.0
CREATION_DATE  = 
ORIGINATOR     = 

OBJECT_NAME    = SL-16 R/B
OBJECT_ID      = 1994-023B
CENTER_NAME    = EARTH
REF_FRAME      = TEME
TIME_SYSTEM    = UTC
MEAN_ELEMENT_THEORY = SGP/SGP4

EPOCH          = 2026-02-12T04:40:59.243232
MEAN_MOTION    = 14.15004636
ECCENTRICITY   = .00045445
INCLINATION    = 70.9995
RA_OF_ASC_NODE = 124.4312
ARG_OF_PERICENTER = 309.6933
MEAN_ANOMALY   = 50.3789

EPHEMERIS_TYPE = 0
CLASSIFICATION_TYPE = U
NORAD_CAT_ID   = 23088
ELEMENT_SET_NO = 999
REV_AT_EPOCH   = 64248
BSTAR          = .12534879E-3
MEAN_MOTION_DOT = .195E-5
MEAN_MOTION_DDOT = 0

CCSDS_OMM_VERS = 2.0
CREATION_DATE  = 
ORIGINATOR     = 

OBJECT_NAME    = SL-16 R/B
OBJECT_ID      = 1994-074B
CENTER_NAME    = EARTH
REF_FRAME      = TEME
TIME_SYSTEM    = UTC
MEAN_ELEMENT_THEORY = SGP/SGP4

EPOCH          = 2026-02-12T02:01:04.945728
MEAN_MOTION    = 14.79377114
ECCENTRICITY   = .00054717
INCLINATION    = 97.7144
RA_OF_ASC_NODE = 74.9350
ARG_OF_PERICENTER = 314.0240
MEAN_ANOMALY   = 67.8491

EPHEMERIS_TYPE = 0
CLASSIFICATION_TYPE = U
NORAD_CAT_ID   = 23343
ELEMENT_SET_NO = 999
REV_AT_EPOCH   = 68346
BSTAR          = .80048145E-4
MEAN_MOTION_DOT = .547E-5
MEAN_MOTION_DDOT = 0

CCSDS_OMM_VERS = 2.0
CREATION_DATE  = 
ORIGINATOR     = 

OBJECT_NAME    = SL-16 R/B
OBJECT_ID      = 1994-077B
CENTER_NAME    = EARTH
REF_FRAME      = TEME
TIME_SYSTEM    = UTC
MEAN_ELEMENT_THEORY = SGP/SGP4

EPOCH          = 2026-02-12T04:28:50.272608
MEAN_MOTION    = 14.15559074
ECCENTRICITY   = .00041632
INCLINATION    = 70.9821
RA_OF_ASC_NODE = 46.1418
ARG_OF_PERICENTER = 232.9798
MEAN_ANOMALY   = 127.0945

EPHEMERIS_TYPE = 0
CLASSIFICATION_TYPE = U
NORAD_CAT_ID   = 23405
ELEMENT_SET_NO = 999
REV_AT_EPOCH   = 61262
BSTAR          = .17401971E-3
MEAN_MOTION_DOT = .293E-5
MEAN_MOTION_DDOT = 0

CCSDS_OMM_VERS = 2.0
CREATION_DATE  = 
ORIGINATOR     = 

OBJECT_NAME    = ARIANE 40+ R/B
OBJECT_ID      = 1995-021B
CENTER_NAME    = EARTH
REF_FRAME      = TEME
TIME_SYSTEM    = UTC
MEAN_ELEMENT_THEORY = SGP/SGP4

EPOCH          = 2026-02-12T03:59:33.853920
MEAN_MOTION    = 14.39753476
ECCENTRICITY   = .00062662
INCLINATION    = 98.4551
RA_OF_ASC_NODE = 114.9880
ARG_OF_PERICENTER = 209.7225
MEAN_ANOMALY   = 178.2783

EPHEMERIS_TYPE = 0
CLASSIFICATION_TYPE = U
NORAD_CAT_ID   = 23561
ELEMENT_SET_NO = 999
REV_AT_EPOCH   = 61557
BSTAR          = .11561194E-3
MEAN_MOTION_DOT = .319E-5
MEAN_MOTION_DDOT = 0

CCSDS_OMM_VERS = 2.0
CREATION_DATE  = 
ORIGINATOR     = 

OBJECT_NAME    = SL-16 R/B
OBJECT_ID      = 1995-058B
CENTER_NAME    = EARTH
REF_FRAME      = TEME
TIME_SYSTEM    = UTC
MEAN_ELEMENT_THEORY = SGP/SGP4

EPOCH          = 2026-02-11T23:31:48.044352
MEAN_MOTION    = 14.15494672
ECCENTRICITY   = .0011995
INCLINATION    = 71.0193
RA_OF_ASC_NODE = 234.2301
ARG_OF_PERICENTER = 168.7416
MEAN_ANOMALY   = 191.3977

EPHEMERIS_TYPE = 0
CLASSIFICATION_TYPE = U
NORAD_CAT_ID   = 23705
ELEMENT_SET_NO = 999
REV_AT_EPOCH   = 56421
BSTAR          = .14023E-3
MEAN_MOTION_DOT = .227E-5
MEAN_MOTION_DDOT = 0

CCSDS_OMM_VERS = 2.0
CREATION_DATE  = 
ORIGINATOR     = 

OBJECT_NAME    = SL-16 R/B
OBJECT_ID      = 1996-051B
CENTER_NAME    = EARTH
REF_FRAME      = TEME
TIME_SYSTEM    = UTC
MEAN_ELEMENT_THEORY = SGP/SGP4

EPOCH          = 2026-02-11T21:23:24.284256
MEAN_MOTION    = 14.12408253
ECCENTRICITY   = .0017306
INCLINATION    = 70.7566
RA_OF_ASC_NODE = 229.8443
ARG_OF_PERICENTER = 184.4249
MEAN_ANOMALY   = 175.6720

EPHEMERIS_TYPE = 0
CLASSIFICATION_TYPE = U
NORAD_CAT_ID   = 24298
ELEMENT_SET_NO = 999
REV_AT_EPOCH   = 51800
BSTAR          = .86247E-4
MEAN_MOTION_DOT = .11E-5
MEAN_MOTION_DDOT = 0

CCSDS_OMM_VERS = 2.0
CREATION_DATE  = 
ORIGINATOR     = 

OBJECT_NAME    = ORBVIEW 2 (SEASTAR)
OBJECT_ID      = 1997-037A
CENTER_NAME    = EARTH
REF_FRAME      = TEME
TIME_SYSTEM    = UTC
MEAN_ELEMENT_THEORY = SGP/SGP4

EPOCH          = 2026-02-11T23:26:05.064000
MEAN_MOTION    = 14.35475036
ECCENTRICITY   = .0003066
INCLINATION    = 98.8521
RA_OF_ASC_NODE = 206.6135
ARG_OF_PERICENTER = 124.0772
MEAN_ANOMALY   = 236.0704

EPHEMERIS_TYPE = 0
CLASSIFICATION_TYPE = U
NORAD_CAT_ID   = 24883
ELEMENT_SET_NO = 999
REV_AT_EPOCH   = 50478
BSTAR          = .14764E-3
MEAN_MOTION_DOT = .378E-5
MEAN_MOTION_DDOT = 0

